KUIPER-00095            
1 65134U 25171C   25278.90045743  .00038263  00000+0  10550-2 0  9995
2 65134  51.8725 137.5992 0003751 349.8273  10.2637 15.36733966  9767
KUIPER-00096            
1 65135U 25171D   25279.99452862  .00056885  00000+0  15275-2 0  9999
2 65135  51.8774 132.1832 0004915 321.8342  38.2296 15.37372401  9930
KUIPER-00097            
1 65136U 25171E   25279.87631358  .00052300  00000+0  14227-2 0  9990
2 65136  51.8757 132.8891 0004131 341.6513  18.4324 15.37012675  9907
KUIPER-00098            
1 65137U 25171F   25277.90510708  .00042004  00000+0  11964-2 0  9993
2 65137  51.8753 142.1884 0005618 297.6641  62.3775 15.35669538  8959
KUIPER-00099            
1 65138U 25171G   25279.01151804  .00064290  00000+0  17183-2 0  9996
2 65138  51.8774 136.8554 0005598 311.9708  48.0801 15.37459624  9775
KUIPER-00100            
1 65139U 25171H   25279.99440127  .00046819  00000+0  12661-2 0  9996
2 65139  51.8750 132.1810 0004429 329.8685  30.2047 15.37242929  9928
KUIPER-00102            
1 65140U 25171J   25279.87665416  .00073479  00000+0  19999-2 0  9998
2 65140  51.8722 132.8874 0003815 351.3829   8.7092 15.36843617  9902
KUIPER-00103            
1 65141U 25171K   25279.93769234 -.00119731  00000+0 -61994-2 0  9995
2 65141  51.8878 134.0364 0005229 335.7477  24.3254 15.16221192  9897
